[{"OBJECT_NAME":"STARLINK-3799","OBJECT_ID":"2022-045BD","EPOCH":"2026-03-09T12:44:10.755456","MEAN_MOTION":15.09112247,"ECCENTRICITY":0.00013442,"INCLINATION":53.2162,"RA_OF_ASC_NODE":189.8374,"ARG_OF_PERICENTER":65.0559,"MEAN_ANOMALY":295.0573,"EPHEMERIS_TYPE":0,"CLASSIFICATION_TYPE":"U","NORAD_CAT_ID":52382,"ELEMENT_SET_NO":999,"REV_AT_EPOCH":21590,"BSTAR":0.00071977404,"MEAN_MOTION_DOT":0.00011271,"MEAN_MOTION_DDOT":0},{"OBJECT_NAME":"COSMOS 886 DEB","OBJECT_ID":"1976-126BB","EPOCH":"2026-03-09T11:56:28.762368","MEAN_MOTION":13.92875098,"ECCENTRICITY":0.05307589,"INCLINATION":65.7939,"RA_OF_ASC_NODE":106.2794,"ARG_OF_PERICENTER":113.8415,"MEAN_ANOMALY":251.9212,"EPHEMERIS_TYPE":0,"CLASSIFICATION_TYPE":"U","NORAD_CAT_ID":9961,"ELEMENT_SET_NO":999,"REV_AT_EPOCH":38673,"BSTAR":0.00065937265,"MEAN_MOTION_DOT":2.683e-5,"MEAN_MOTION_DDOT":0}]
